[{"OBJECT_NAME":"STARLINK-31853","OBJECT_ID":"2024-106M","EPOCH":"2026-03-09T02:35:20.600448","MEAN_MOTION":15.27569782,"ECCENTRICITY":4.231e-5,"INCLINATION":43.0016,"RA_OF_ASC_NODE":335.8243,"ARG_OF_PERICENTER":271.3812,"MEAN_ANOMALY":88.6991,"EPHEMERIS_TYPE":0,"CLASSIFICATION_TYPE":"U","NORAD_CAT_ID":59933,"ELEMENT_SET_NO":999,"REV_AT_EPOCH":10043,"BSTAR":-0.00010545764,"MEAN_MOTION_DOT":-3.161e-5,"MEAN_MOTION_DDOT":0},{"OBJECT_NAME":"KUIPER-00252","OBJECT_ID":"2025-301AA","EPOCH":"2026-03-09T22:00:01.999584","MEAN_MOTION":15.32961042,"ECCENTRICITY":0.00108625,"INCLINATION":51.8682,"RA_OF_ASC_NODE":64.6463,"ARG_OF_PERICENTER":55.9089,"MEAN_ANOMALY":330.8749,"EPHEMERIS_TYPE":0,"CLASSIFICATION_TYPE":"U","NORAD_CAT_ID":67157,"ELEMENT_SET_NO":999,"REV_AT_EPOCH":542,"BSTAR":-0.017504489,"MEAN_MOTION_DOT":-0.00529484,"MEAN_MOTION_DDOT":0}]
